start=new Date('2021-12-28T00:00:00.000Z').valueOf();
sats=[{"TLE_LINE2":"2 47552  53.0546  54.1752 0001131  81.7669 278.3448 15.06407137 49851","MEAN_MOTION_DOT":"0.00004324","ELEMENT_SET_NO":"999","SITE":"AFETR","CLASSIFICATION_TYPE":"U","PERIOD":"95.592","GP_ID":"192569764","LAUNCH_DATE":"2021-02-04","FILE":"3252683","DECAY_DATE":null,"MEAN_ELEMENT_THEORY":"SGP4","REF_FRAME":"TEME","EPHEMERIS_TYPE":"0","APOAPSIS":"547.975","COUNTRY_CODE":"US","CENTER_NAME":"EARTH","INCLINATION":"53.0546","TLE_LINE1":"1 47552U 21009E   21361.54540400  .00004324  00000-0  30896-3 0  9992","REV_AT_EPOCH":"4985","RA_OF_ASC_NODE":"54.1752","OBJECT_ID":"2021-009E","MEAN_MOTION":"15.06407137","OBJECT_NAME":"STARLINK-1940","ARG_OF_PERICENTER":"81.7669","MEAN_MOTION_DDOT":"0.0000000000000","BSTAR":"0.00030896000000","TIME_SYSTEM":"UTC","RCS_SIZE":"LARGE","ECCENTRICITY":"0.00011310","PERIAPSIS":"546.408","OBJECT_TYPE":"PAYLOAD","EPOCH":"2021-12-27T13:05:22.905600","SEMIMAJOR_AXIS":"6925.327","NORAD_CAT_ID":"47552","MEAN_ANOMALY":"278.3448"},{"OBJECT_NAME":"STARLINK-1951","OBJECT_ID":"2021-009F","MEAN_MOTION":"15.32300883","TLE_LINE1":"1 47553U 21009F   21361.41470317  .00139009  00000-0  43262-2 0  9997","RA_OF_ASC_NODE":"50.7368","REV_AT_EPOCH":"4989","INCLINATION":"53.0609","COUNTRY_CODE":"US","CENTER_NAME":"EARTH","APOAPSIS":"470.306","EPHEMERIS_TYPE":"0","SEMIMAJOR_AXIS":"6847.086","NORAD_CAT_ID":"47553","MEAN_ANOMALY":"330.6981","EPOCH":"2021-12-27T09:57:10.353888","PERIAPSIS":"467.596","OBJECT_TYPE":"PAYLOAD","ECCENTRICITY":"0.00019790","RCS_SIZE":"LARGE","TIME_SYSTEM":"UTC","BSTAR":"0.00432620000000","MEAN_MOTION_DDOT":"0.0000000000000","ARG_OF_PERICENTER":"29.4130","LAUNCH_DATE":"2021-02-04","GP_ID":"192569514","PERIOD":"93.976","CLASSIFICATION_TYPE":"U","ELEMENT_SET_NO":"999","SITE":"AFETR","MEAN_MOTION_DOT":"0.00139009","TLE_LINE2":"2 47553  53.0609  50.7368 0001979  29.4130 330.6981 15.32300883 49896","REF_FRAME":"TEME","MEAN_ELEMENT_THEORY":"SGP4","DECAY_DATE":null,"FILE":"3252683"},{"REF_FRAME":"TEME","DECAY_DATE":null,"MEAN_ELEMENT_THEORY":"SGP4","FILE":"3253114","PERIOD":"95.592","CLASSIFICATION_TYPE":"U","ELEMENT_SET_NO":"999","SITE":"AFETR","MEAN_MOTION_DOT":"0.00002861","TLE_LINE2":"2 47554  53.0557  73.8478 0002831 175.2380 184.8637 15.06400496 49587","LAUNCH_DATE":"2021-02-04","GP_ID":"192604253","ECCENTRICITY":"0.00028310","RCS_SIZE":"LARGE","TIME_SYSTEM":"UTC","BSTAR":"0.00021091000000","ARG_OF_PERICENTER":"175.2380","MEAN_MOTION_DDOT":"0.0000000000000","NORAD_CAT_ID":"47554","SEMIMAJOR_AXIS":"6925.347","MEAN_ANOMALY":"184.8637","EPOCH":"2021-12-27T14:48:53.117280","OBJECT_TYPE":"PAYLOAD","PERIAPSIS":"545.251","REV_AT_EPOCH":"4958","TLE_LINE1":"1 47554U 21009G   21361.61728145  .00002861  00000-0  21091-3 0  9997","RA_OF_ASC_NODE":"73.8478","INCLINATION":"53.0557","COUNTRY_CODE":"US","CENTER_NAME":"EARTH","EPHEMERIS_TYPE":"0","APOAPSIS":"549.173","OBJECT_NAME":"STARLINK-1953","MEAN_MOTION":"15.06400496","OBJECT_ID":"2021-009G"},{"LAUNCH_DATE":"2021-02-04","GP_ID":"192605001","PERIOD":"95.592","CLASSIFICATION_TYPE":"U","SITE":"AFETR","ELEMENT_SET_NO":"999","MEAN_MOTION_DOT":"0.00003297","TLE_LINE2":"2 47555  53.0535  63.9641 0001249  96.4628 263.6503 15.06403717 49720","MEAN_ELEMENT_THEORY":"SGP4","DECAY_DATE":null,"REF_FRAME":"TEME","FILE":"3253114","OBJECT_NAME":"STARLINK-1954","MEAN_MOTION":"15.06403717","OBJECT_ID":"2021-009H","TLE_LINE1":"1 47555U 21009H   21361.59240648  .00003297  00000-0  24008-3 0  9997","REV_AT_EPOCH":"4972","RA_OF_ASC_NODE":"63.9641","CENTER_NAME":"EARTH","COUNTRY_CODE":"US","INCLINATION":"53.0535","EPHEMERIS_TYPE":"0","APOAPSIS":"548.067","SEMIMAJOR_AXIS":"6925.337","MEAN_ANOMALY":"263.6503","NORAD_CAT_ID":"47555","EPOCH":"2021-12-27T14:13:03.919872","PERIAPSIS":"546.337","OBJECT_TYPE":"PAYLOAD","RCS_SIZE":"LARGE","ECCENTRICITY":"0.00012490","TIME_SYSTEM":"UTC","BSTAR":"0.00024008000000","MEAN_MOTION_DDOT":"0.0000000000000","ARG_OF_PERICENTER":"96.4628"},{"SITE":"AFETR","ELEMENT_SET_NO":"999","CLASSIFICATION_TYPE":"U","PERIOD":"95.592","TLE_LINE2":"2 47556  53.0542  83.4955 0001290  88.6425 271.4712 15.06401321 49456","MEAN_MOTION_DOT":"-0.00000062","LAUNCH_DATE":"2021-02-04","GP_ID":"192603257","FILE":"3253114","REF_FRAME":"TEME","DECAY_DATE":null,"MEAN_ELEMENT_THEORY":"SGP4","TLE_LINE1":"1 47556U 21009J   21361.69375957 -.00000062  00000-0  14755-4 0  9998","REV_AT_EPOCH":"4945","RA_OF_ASC_NODE":"83.4955","APOAPSIS":"548.103","EPHEMERIS_TYPE":"0","INCLINATION":"53.0542","CENTER_NAME":"EARTH","COUNTRY_CODE":"US","OBJECT_NAME":"STARLINK-1955","OBJECT_ID":"2021-009J","MEAN_MOTION":"15.06401321","TIME_SYSTEM":"UTC","BSTAR":"0.00001475500000","ECCENTRICITY":"0.00012900","RCS_SIZE":"LARGE","MEAN_MOTION_DDOT":"0.0000000000000","ARG_OF_PERICENTER":"88.6425","SEMIMAJOR_AXIS":"6925.345","NORAD_CAT_ID":"47556","MEAN_ANOMALY":"271.4712","PERIAPSIS":"546.316","OBJECT_TYPE":"PAYLOAD","EPOCH":"2021-12-27T16:39:00.826848"},{"FILE":"3253114","DECAY_DATE":null,"MEAN_ELEMENT_THEORY":"SGP4","REF_FRAME":"TEME","SITE":"AFETR","ELEMENT_SET_NO":"999","PERIOD":"95.593","CLASSIFICATION_TYPE":"U","TLE_LINE2":"2 47557  53.0549  83.3843 0001432  84.3482 275.7671 15.06388491 49467","MEAN_MOTION_DOT":"-0.00000556","LAUNCH_DATE":"2021-02-04","GP_ID":"192603505","TIME_SYSTEM":"UTC","BSTAR":"-0.00001845400000","RCS_SIZE":"LARGE","ECCENTRICITY":"0.00014320","ARG_OF_PERICENTER":"84.3482","MEAN_MOTION_DDOT":"0.0000000000000","SEMIMAJOR_AXIS":"6925.384","NORAD_CAT_ID":"47557","MEAN_ANOMALY":"275.7671","PERIAPSIS":"546.257","OBJECT_TYPE":"PAYLOAD","EPOCH":"2021-12-27T17:21:28.895040","REV_AT_EPOCH":"4946","TLE_LINE1":"1 47557U 21009K   21361.72325110 -.00000556  00000-0 -18454-4 0  9998","RA_OF_ASC_NODE":"83.3843","APOAPSIS":"548.241","EPHEMERIS_TYPE":"0","COUNTRY_CODE":"US","CENTER_NAME":"EARTH","INCLINATION":"53.0549","OBJECT_NAME":"STARLINK-1956","MEAN_MOTION":"15.06388491","OBJECT_ID":"2021-009K"},{"GP_ID":"192604754","LAUNCH_DATE":"2021-02-04","MEAN_MOTION_DOT":"0.00002020","TLE_LINE2":"2 47558  53.0562  53.7477 0001305  72.3626 287.7506 15.06398008 49862","CLASSIFICATION_TYPE":"U","PERIOD":"95.592","SITE":"AFETR","ELEMENT_SET_NO":"999","REF_FRAME":"TEME","DECAY_DATE":null,"MEAN_ELEMENT_THEORY":"SGP4","FILE":"3253114","OBJECT_ID":"2021-009L","MEAN_MOTION":"15.06398008","OBJECT_NAME":"STARLINK-1957","INCLINATION":"53.0562","COUNTRY_CODE":"US","CENTER_NAME":"EARTH","EPHEMERIS_TYPE":"0","APOAPSIS":"548.123","RA_OF_ASC_NODE":"53.7477","TLE_LINE1":"1 47558U 21009L   21361.63755376  .00002020  00000-0  15448-3 0  9995","REV_AT_EPOCH":"4986","EPOCH":"2021-12-27T15:18:04.644864","OBJECT_TYPE":"PAYLOAD","PERIAPSIS":"546.316","SEMIMAJOR_AXIS":"6925.355","MEAN_ANOMALY":"287.7506","NORAD_CAT_ID":"47558","MEAN_MOTION_DDOT":"0.0000000000000","ARG_OF_PERICENTER":"72.3626","ECCENTRICITY":"0.00013050","RCS_SIZE":"LARGE","BSTAR":"0.00015448000000","TIME_SYSTEM":"UTC"},{"REF_FRAME":"TEME","DECAY_DATE":null,"MEAN_ELEMENT_THEORY":"SGP4","FILE":"3253114","MEAN_MOTION_DOT":"-0.00000028","TLE_LINE2":"2 47559  53.0545  43.9214 0001615  65.5419 294.5739 15.06394871 50008","PERIOD":"95.592","CLASSIFICATION_TYPE":"U","SITE":"AFETR","ELEMENT_SET_NO":"999","GP_ID":"192604501","LAUNCH_DATE":"2021-02-04","ARG_OF_PERICENTER":"65.5419","MEAN_MOTION_DDOT":"0.0000000000000","ECCENTRICITY":"0.00016150","RCS_SIZE":"LARGE","TIME_SYSTEM":"UTC","BSTAR":"0.00001704500000","EPOCH":"2021-12-27T14:26:20.102784","OBJECT_TYPE":"PAYLOAD","PERIAPSIS":"546.111","SEMIMAJOR_AXIS":"6925.364","NORAD_CAT_ID":"47559","MEAN_ANOMALY":"294.5739","INCLINATION":"53.0545","CENTER_NAME":"EARTH","COUNTRY_CODE":"US","APOAPSIS":"548.348","EPHEMERIS_TYPE":"0","RA_OF_ASC_NODE":"43.9214","TLE_LINE1":"1 47559U 21009M   21361.60162156 -.00000028  00000-0  17045-4 0  9994","REV_AT_EPOCH":"5000","MEAN_MOTION":"15.06394871","OBJECT_ID":"2021-009M","OBJECT_NAME":"STARLINK-1958"},{"ARG_OF_PERICENTER":"78.6736","MEAN_MOTION_DDOT":"0.0000000000000","BSTAR":"0.00022684000000","TIME_SYSTEM":"UTC","RCS_SIZE":"LARGE","ECCENTRICITY":"0.00013770","PERIAPSIS":"546.273","OBJECT_TYPE":"PAYLOAD","EPOCH":"2021-12-27T12:40:10.450272","SEMIMAJOR_AXIS":"6925.361","NORAD_CAT_ID":"47560","MEAN_ANOMALY":"281.4408","APOAPSIS":"548.180","EPHEMERIS_TYPE":"0","COUNTRY_CODE":"US","CENTER_NAME":"EARTH","INCLINATION":"53.0551","TLE_LINE1":"1 47560U 21009N   21361.52789873  .00003099  00000-0  22684-3 0  9992","RA_OF_ASC_NODE":"44.2593","REV_AT_EPOCH":"4999","OBJECT_ID":"2021-009N","MEAN_MOTION":"15.06395863","OBJECT_NAME":"STARLINK-1959","FILE":"3252683","DECAY_DATE":null,"MEAN_ELEMENT_THEORY":"SGP4","REF_FRAME":"TEME","TLE_LINE2":"2 47560  53.0551  44.2593 0001377  78.6736 281.4408 15.06395863 49999","MEAN_MOTION_DOT":"0.00003099","ELEMENT_SET_NO":"999","SITE":"AFETR","CLASSIFICATION_TYPE":"U","PERIOD":"95.592","GP_ID":"192569765","LAUNCH_DATE":"2021-02-04"},{"MEAN_ANOMALY":"207.1889","SEMIMAJOR_AXIS":"6925.357","NORAD_CAT_ID":"47561","EPOCH":"2021-12-27T15:32:40.890336","OBJECT_TYPE":"PAYLOAD","PERIAPSIS":"544.480","RCS_SIZE":"LARGE","ECCENTRICITY":"0.00039590","BSTAR":"0.00025057000000","TIME_SYSTEM":"UTC","MEAN_MOTION_DDOT":"0.0000000000000","ARG_OF_PERICENTER":"152.9307","OBJECT_NAME":"STARLINK-1960","OBJECT_ID":"2021-009P","MEAN_MOTION":"15.06397261","TLE_LINE1":"1 47561U 21009P   21361.64769549  .00003452  00000-0  25057-3 0  9994","RA_OF_ASC_NODE":"63.7235","REV_AT_EPOCH":"4973","CENTER_NAME":"EARTH","COUNTRY_CODE":"US","INCLINATION":"53.0544","EPHEMERIS_TYPE":"0","APOAPSIS":"549.964","MEAN_ELEMENT_THEORY":"SGP4","DECAY_DATE":null,"REF_FRAME":"TEME","FILE":"3253114","LAUNCH_DATE":"2021-02-04","GP_ID":"192604006","CLASSIFICATION_TYPE":"U","PERIOD":"95.592","ELEMENT_SET_NO":"999","SITE":"AFETR","MEAN_MOTION_DOT":"0.00003452","TLE_LINE2":"2 47561  53.0544  63.7235 0003959 152.9307 207.1889 15.06397261 49733"}];
